{
  "type": "FeatureCollection",
  "features": [
    {
      "type": "Feature",
      "properties": {
        "norad_id": 34540,
        "name": "IRIDIUM 33 DEB",
        "group": "iridium-33-debris",
        "lat": -8.836468809048704,
        "lon": -56.43238923953202,
        "alt_km": 657.5656420914911,
        "timestamp": "2025-12-20T07:33:51.198536+00:00",
        "meta_object_name": "IRIDIUM 33 DEB",
        "meta_object_id": "1997-051JH",
        "meta_epoch": "2025-12-19T20:29:06.527328",
        "meta_mean_motion": 14.75455566,
        "meta_eccentricity": 0.00175023,
        "meta_inclination": 86.3106,
        "meta_ra_of_asc_node": 304.3534,
        "meta_arg_of_pericenter": 135.0106,
        "meta_mean_anomaly": 285.9801,
        "meta_ephemeris_type": 0,
        "meta_classification_type": "U",
        "meta_norad_cat_id": 34540,
        "meta_element_set_no": 999,
        "meta_rev_at_epoch": 89126,
        "meta_bstar": 0.00097623982,
        "meta_mean_motion_dot": 6.676e-05,
        "meta_mean_motion_ddot": 0,
        "tle_line1": "1 34540U 97051JH  25353.85354777  .00006676  00000+0  97624-3 0  9997",
        "tle_line2": "2 34540  86.3106 304.3534 0017502 135.0106 285.9801 14.75455566891262"
      },
      "geometry": {
        "type": "Point",
        "coordinates": [
          -56.43238923953202,
          -8.836468809048704
        ]
      }
    },
    {
      "type": "Feature",
      "properties": {
        "norad_id": 34648,
        "name": "IRIDIUM 33 DEB",
        "group": "iridium-33-debris",
        "lat": -19.23990006163203,
        "lon": 100.14933934871449,
        "alt_km": 824.8945095312183,
        "timestamp": "2025-12-20T07:33:51.198547+00:00",
        "meta_object_name": "IRIDIUM 33 DEB",
        "meta_object_id": "1997-051JZ",
        "meta_epoch": "2025-12-18T13:46:37.352352",
        "meta_mean_motion": 14.1166623,
        "meta_eccentricity": 0.01808845,
        "meta_inclination": 86.3904,
        "meta_ra_of_asc_node": 279.59,
        "meta_arg_of_pericenter": 280.6676,
        "meta_mean_anomaly": 77.4184,
        "meta_ephemeris_type": 0,
        "meta_classification_type": "U",
        "meta_norad_cat_id": 34648,
        "meta_element_set_no": 999,
        "meta_rev_at_epoch": 85043,
        "meta_bstar": 0.0055375481,
        "meta_mean_motion_dot": 0.00011772,
        "meta_mean_motion_ddot": 0,
        "tle_line1": "1 34648U 97051JZ  25352.57404343  .00011772  00000+0  55375-2 0  9998",
        "tle_line2": "2 34648  86.3904 279.5900 0180884 280.6676  77.4184 14.11666230850434"
      },
      "geometry": {
        "type": "Point",
        "coordinates": [
          100.14933934871449,
          -19.23990006163203
        ]
      }
    },
    {
      "type": "Feature",
      "properties": {
        "norad_id": 34651,
        "name": "IRIDIUM 33 DEB",
        "group": "iridium-33-debris",
        "lat": -70.78099188474434,
        "lon": 126.60677075844346,
        "alt_km": 844.5902950255522,
        "timestamp": "2025-12-20T07:33:51.198557+00:00",
        "meta_object_name": "IRIDIUM 33 DEB",
        "meta_object_id": "1997-051KC",
        "meta_epoch": "2025-12-19T16:44:48.420096",
        "meta_mean_motion": 14.25922062,
        "meta_eccentricity": 0.01422464,
        "meta_inclination": 86.2827,
        "meta_ra_of_asc_node": 137.6175,
        "meta_arg_of_pericenter": 181.9677,
        "meta_mean_anomaly": 178.0974,
        "meta_ephemeris_type": 0,
        "meta_classification_type": "U",
        "meta_norad_cat_id": 34651,
        "meta_element_set_no": 999,
        "meta_rev_at_epoch": 85995,
        "meta_bstar": 0.0022061693,
        "meta_mean_motion_dot": 5.865e-05,
        "meta_mean_motion_ddot": 0,
        "tle_line1": "1 34651U 97051KC  25353.69778264  .00005865  00000+0  22062-2 0  9995",
        "tle_line2": "2 34651  86.2827 137.6175 0142246 181.9677 178.0974 14.25922062859957"
      },
      "geometry": {
        "type": "Point",
        "coordinates": [
          126.60677075844346,
          -70.78099188474434
        ]
      }
    },
    {
      "type": "Feature",
      "properties": {
        "norad_id": 34652,
        "name": "IRIDIUM 33 DEB",
        "group": "iridium-33-debris",
        "lat": -64.29457680533643,
        "lon": 164.2880366043408,
        "alt_km": 677.4393886004254,
        "timestamp": "2025-12-20T07:33:51.198568+00:00",
        "meta_object_name": "IRIDIUM 33 DEB",
        "meta_object_id": "1997-051KD",
        "meta_epoch": "2025-12-19T17:51:26.256096",
        "meta_mean_motion": 14.62117993,
        "meta_eccentricity": 0.00255284,
        "meta_inclination": 86.331,
        "meta_ra_of_asc_node": 336.8822,
        "meta_arg_of_pericenter": 272.5866,
        "meta_mean_anomaly": 207.7977,
        "meta_ephemeris_type": 0,
        "meta_classification_type": "U",
        "meta_norad_cat_id": 34652,
        "meta_element_set_no": 999,
        "meta_rev_at_epoch": 88586,
        "meta_bstar": 0.00063186757,
        "meta_mean_motion_dot": 3.211e-05,
        "meta_mean_motion_ddot": 0,
        "tle_line1": "1 34652U 97051KD  25353.74405389  .00003211  00000+0  63187-3 0  9994",
        "tle_line2": "2 34652  86.3310 336.8822 0025528 272.5866 207.7977 14.62117993885860"
      },
      "geometry": {
        "type": "Point",
        "coordinates": [
          164.2880366043408,
          -64.29457680533643
        ]
      }
    },
    {
      "type": "Feature",
      "properties": {
        "norad_id": 34690,
        "name": "IRIDIUM 33 DEB",
        "group": "iridium-33-debris",
        "lat": -82.00121160869665,
        "lon": 6.904630040410074,
        "alt_km": 716.0684101282486,
        "timestamp": "2025-12-20T07:33:51.198578+00:00",
        "meta_object_name": "IRIDIUM 33 DEB",
        "meta_object_id": "1997-051KM",
        "meta_epoch": "2025-12-19T02:30:15.635232",
        "meta_mean_motion": 14.55118004,
        "meta_eccentricity": 0.00100928,
        "meta_inclination": 86.3778,
        "meta_ra_of_asc_node": 34.2255,
        "meta_arg_of_pericenter": 8.472,
        "meta_mean_anomaly": 50.0408,
        "meta_ephemeris_type": 0,
        "meta_classification_type": "U",
        "meta_norad_cat_id": 34690,
        "meta_element_set_no": 999,
        "meta_rev_at_epoch": 88187,
        "meta_bstar": 0.00032814485,
        "meta_mean_motion_dot": 1.438e-05,
        "meta_mean_motion_ddot": 0,
        "tle_line1": "1 34690U 97051KM  25353.10434763  .00001438  00000+0  32814-3 0  9996",
        "tle_line2": "2 34690  86.3778  34.2255 0010092   8.4720  50.0408 14.55118004881875"
      },
      "geometry": {
        "type": "Point",
        "coordinates": [
          6.904630040410074,
          -82.00121160869665
        ]
      }
    },
    {
      "type": "Feature",
      "properties": {
        "norad_id": 34693,
        "name": "IRIDIUM 33 DEB",
        "group": "iridium-33-debris",
        "lat": 6.275357370121532,
        "lon": 119.6482533804076,
        "alt_km": 485.1561179466953,
        "timestamp": "2025-12-20T07:33:51.198589+00:00",
        "meta_object_name": "IRIDIUM 33 DEB",
        "meta_object_id": "1997-051KQ",
        "meta_epoch": "2025-12-19T21:40:09.433344",
        "meta_mean_motion": 15.29576103,
        "meta_eccentricity": 0.00124542,
        "meta_inclination": 86.3023,
        "meta_ra_of_asc_node": 300.2612,
        "meta_arg_of_pericenter": 40.9264,
        "meta_mean_anomaly": 23.8115,
        "meta_ephemeris_type": 0,
        "meta_classification_type": "U",
        "meta_norad_cat_id": 34693,
        "meta_element_set_no": 999,
        "meta_rev_at_epoch": 89024,
        "meta_bstar": 0.0029726856,
        "meta_mean_motion_dot": 0.00086209,
        "meta_mean_motion_ddot": 0,
        "tle_line1": "1 34693U 97051KQ  25353.90288696  .00086209  00000+0  29727-2 0  9996",
        "tle_line2": "2 34693  86.3023 300.2612 0012454  40.9264  23.8115 15.29576103890246"
      },
      "geometry": {
        "type": "Point",
        "coordinates": [
          119.6482533804076,
          6.275357370121532
        ]
      }
    },
    {
      "type": "Feature",
      "properties": {
        "norad_id": 34696,
        "name": "IRIDIUM 33 DEB",
        "group": "iridium-33-debris",
        "lat": -27.135909697093943,
        "lon": 22.036622537918557,
        "alt_km": 732.6503886873597,
        "timestamp": "2025-12-20T07:33:51.198613+00:00",
        "meta_object_name": "IRIDIUM 33 DEB",
        "meta_object_id": "1997-051KT",
        "meta_epoch": "2025-12-19T02:26:16.937952",
        "meta_mean_motion": 14.65392793,
        "meta_eccentricity": 0.00738562,
        "meta_inclination": 86.184,
        "meta_ra_of_asc_node": 24.5618,
        "meta_arg_of_pericenter": 146.0479,
        "meta_mean_anomaly": 268.8933,
        "meta_ephemeris_type": 0,
        "meta_classification_type": "U",
        "meta_norad_cat_id": 34696,
        "meta_element_set_no": 999,
        "meta_rev_at_epoch": 86766,
        "meta_bstar": 0.0030854988,
        "meta_mean_motion_dot": 0.00017409,
        "meta_mean_motion_ddot": 0,
        "tle_line1": "1 34696U 97051KT  25353.10158493  .00017409  00000+0  30855-2 0  9992",
        "tle_line2": "2 34696  86.1840  24.5618 0073856 146.0479 268.8933 14.65392793867664"
      },
      "geometry": {
        "type": "Point",
        "coordinates": [
          22.036622537918557,
          -27.135909697093943
        ]
      }
    }
  ]
}